NORAD_CAT_ID,OBJECT_NAME,OBJECT_TYPE,EPOCH,MEAN_MOTION,ECCENTRICITY,INCLINATION,RA_OF_ASC_NODE,ARG_OF_PERICENTER,MEAN_ANOMALY,BSTAR,MEAN_MOTION_DOT,MEAN_MOTION_DDOT,TLE_LINE0,TLE_LINE1,TLE_LINE2,SEMIMAJOR_AXIS,PERIOD,APOGEE,PERIGEE,DECAYED
53400.0,STARLINK-4520,PAYLOAD,2023-03-18 23:59:47,15.08851675,0.0001172,53.2159,322.4653,58.3435,301.7672,0.0003186,4.788e-05,0.0,0 STARLINK-4520,1 53400U 22097N   23077.99985542  .00004788  00000-0  31860-3 0  9990,2 53400  53.2159 322.4653 0001172  58.3435 301.7672 15.08851675 33977,6917.845,95.437,540.52,538.899,0.0
53400.0,STARLINK-4520,PAYLOAD,2023-03-19 09:32:06,15.08849728,0.0001245,53.2156,320.683,59.4183,300.6932,0.00020988,3.055e-05,0.0,0 STARLINK-4520,1 53400U 22097N   23078.39729480  .00003055  00000-0  20988-3 0  9997,2 53400  53.2156 320.6830 0001245  59.4183 300.6932 15.08849728 34529,6917.851,95.437,540.577,538.854,0.0
53400.0,STARLINK-4520,PAYLOAD,2023-03-19 20:39:48,15.08844119,0.000132,53.2159,318.602,60.7289,299.3835,7.5175e-05,9.09e-06,0.0,0 STARLINK-4520,1 53400U 22097N   23078.86097613  .00000909  00000-0  75175-4 0  9999,2 53400  53.2159 318.6020 0001320  60.7289 299.3835 15.08844119 34105,6917.868,95.437,540.646,538.82,0.0
53400.0,STARLINK-4520,PAYLOAD,2023-03-19 22:15:11,15.08849306,0.000117,53.216,318.301,74.4134,285.6987,0.00013844,1.917e-05,0.0,0 STARLINK-4520,1 53400U 22097N   23078.92721364  .00001917  00000-0  13844-3 0  9997,2 53400  53.2160 318.3010 0001170  74.4134 285.6987 15.08849306 34601,6917.852,95.437,540.526,538.908,0.0
53400.0,STARLINK-4520,PAYLOAD,2023-03-20 01:25:57,15.08856354,0.000108,53.2162,317.7065,78.0935,282.0178,0.00024772,3.659e-05,0.0,0 STARLINK-4520,1 53400U 22097N   23079.05968982  .00003659  00000-0  24772-3 0  9998,2 53400  53.2162 317.7065 0001080  78.0935 282.0178 15.08856354 34137,6917.83,95.437,540.443,538.948,0.0
53400.0,STARLINK-4520,PAYLOAD,2023-03-20 09:22:53,15.08845237,0.00012,53.2158,316.2207,74.3827,285.7297,0.00015161,2.126e-05,0.0,0 STARLINK-4520,1 53400U 22097N   23079.39089443  .00002126  00000-0  15161-3 0  9991,2 53400  53.2158 316.2207 0001200  74.3827 285.7297 15.08845237 34182,6917.864,95.437,540.56,538.899,0.0
53400.0,STARLINK-4520,PAYLOAD,2023-03-20 23:41:21,15.08851531,0.0001237,53.2158,313.5448,80.4619,279.6513,0.00021388,3.119e-05,0.0,0 STARLINK-4520,1 53400U 22097N   23079.98705111  .00003119  00000-0  21388-3 0  9994,2 53400  53.2158 313.5448 0001237  80.4619 279.6513 15.08851531 34767,6917.845,95.437,540.566,538.854,0.0
53400.0,STARLINK-4520,PAYLOAD,2023-03-21 21:56:45,15.08840005,0.0001244,53.2148,309.3816,80.1995,279.9138,5.7738e-05,6.31e-06,0.0,0 STARLINK-4520,1 53400U 22097N   23080.91441491  .00000631  00000-0  57738-4 0  9992,2 53400  53.2148 309.3816 0001244  80.1995 279.9138 15.08840005 34412,6917.88,95.438,540.606,538.885,0.0
53400.0,STARLINK-4520,PAYLOAD,2023-03-22 01:07:30,15.08864076,0.0001225,53.2155,308.7846,85.4044,274.7088,0.00032584,4.905e-05,0.0,0 STARLINK-4520,1 53400U 22097N   23081.04688395  .00004905  00000-0  32584-3 0  9992,2 53400  53.2155 308.7846 0001225  85.4044 274.7088 15.08864076 34431,6917.807,95.436,540.519,538.824,0.0
53400.0,STARLINK-4520,PAYLOAD,2023-03-22 20:12:09,15.0884146,0.0001237,53.2147,305.2126,101.8179,258.2951,7.0425e-05,8.33e-06,0.0,0 STARLINK-4520,1 53400U 22097N   23081.84177373  .00000833  00000-0  70425-4 0  9992,2 53400  53.2147 305.2126 0001237 101.8179 258.2951 15.08841460 34551,6917.876,95.437,540.597,538.885,0.0
53400.0,STARLINK-4520,PAYLOAD,2023-03-22 21:47:32,15.08840397,0.0001043,53.2149,304.9155,102.2509,257.86,-1.8346e-05,-5.8e-06,0.0,0 STARLINK-4520,1 53400U 22097N   23081.90801025 -.00000580  00000-0 -18346-4 0  9992,2 53400  53.2149 304.9155 0001043 102.2509 257.8600 15.08840397 35058,6917.879,95.438,540.466,539.023,0.0
53400.0,STARLINK-4520,PAYLOAD,2023-03-22 23:22:55,15.08842989,0.0001015,53.2153,304.618,100.0119,260.0988,-1.0101e-05,-4.49e-06,0.0,0 STARLINK-4520,1 53400U 22097N   23081.97424993 -.00000449  00000-0 -10101-4 0  9999,2 53400  53.2153 304.6180 0001015 100.0119 260.0988 15.08842989 35065,6917.871,95.437,540.438,539.034,0.0
53400.0,STARLINK-4520,PAYLOAD,2023-03-23 20:02:56,15.08838851,0.0001166,53.2148,300.752,82.4752,277.6373,-0.00012811,-2.326e-05,0.0,0 STARLINK-4520,1 53400U 22097N   23082.83537810 -.00002326  00000-0 -12811-3 0  9993,2 53400  53.2148 300.7520 0001166  82.4752 277.6373 15.08838851 34702,6917.884,95.438,540.556,538.942,0.0
53400.0,STARLINK-4520,PAYLOAD,2023-03-23 21:38:19,15.088379,0.0001239,53.2148,300.4626,106.6868,253.426,-1.2957e-06,-3.08e-06,0.0,0 STARLINK-4520,1 53400U 22097N   23082.90161821 -.00000308  00000-0 -12957-5 0  9997,2 53400  53.2148 300.4626 0001239 106.6868 253.4260 15.08837900 35201,6917.887,95.438,540.609,538.895,0.0
53400.0,STARLINK-4520,PAYLOAD,2023-03-24 00:49:05,15.08844574,0.0001272,53.2154,299.8655,97.5793,262.5344,0.0001134,1.518e-05,0.0,0 STARLINK-4520,1 53400U 22097N   23083.03409546  .00001518  00000-0  11340-3 0  9996,2 53400  53.2154 299.8655 0001272  97.5793 262.5344 15.08844574 34739,6917.866,95.437,540.611,538.851,0.0
53400.0,STARLINK-4520,PAYLOAD,2023-03-24 21:29:06,15.08850019,0.000127,53.2154,295.9997,107.2956,252.8175,0.00029218,4.366e-05,0.0,0 STARLINK-4520,1 53400U 22097N   23083.89521213  .00004366  00000-0  29218-3 0  9993,2 53400  53.2154 295.9997 0001270 107.2956 252.8175 15.08850019 35357,6917.85,95.437,540.593,538.836,0.0
53400.0,STARLINK-4520,PAYLOAD,2023-03-25 00:39:52,15.08861333,0.0001076,53.2145,295.4037,94.2699,265.8416,0.00052509,8.084e-05,0.0,0 STARLINK-4520,1 53400U 22097N   23084.02768877  .00008084  00000-0  52509-3 0  9998,2 53400  53.2145 295.4037 0001076  94.2699 265.8416 15.08861333 34880,6917.815,95.436,540.425,538.936,0.0
53400.0,STARLINK-4520,PAYLOAD,2023-03-25 21:19:54,15.08819381,0.0001063,53.2149,291.5381,83.3049,276.8064,-0.00028593,-4.833e-05,0.0,0 STARLINK-4520,1 53400U 22097N   23084.88883014 -.00004833  00000-0 -28593-3 0  9999,2 53400  53.2149 291.5381 0001063  83.3049 276.8064 15.08819381 35010,6917.943,95.439,540.544,539.073,0.0
53400.0,STARLINK-4520,PAYLOAD,2023-03-26 19:35:19,15.08829018,9.69e-05,53.2137,287.375,85.3448,274.7655,4.3495e-05,4.04e-06,0.0,0 STARLINK-4520,1 53400U 22097N   23085.81619433  .00000404  00000-0  43495-4 0  9992,2 53400  53.2137 287.3750 0000969  85.3448 274.7655 15.08829018 35155,6917.914,95.438,540.449,539.109,0.0
53400.0,STARLINK-4520,PAYLOAD,2023-03-26 21:10:42,15.08836533,0.0001086,53.2145,287.0768,68.3766,291.7342,0.00024258,3.575e-05,0.0,0 STARLINK-4520,1 53400U 22097N   23085.88243598  .00003575  00000-0  24258-3 0  9991,2 53400  53.2145 287.0768 0001086  68.3766 291.7342 15.08836533 35652,6917.891,95.438,540.507,539.005,0.0
53400.0,STARLINK-4520,PAYLOAD,2023-03-27 13:04:33,15.08851779,0.0001266,53.2147,284.1038,65.3389,294.7735,0.00075969,0.00011827,0.0,0 STARLINK-4520,1 53400U 22097N   23086.54483786  .00011827  00000-0  75969-3 0  9994,2 53400  53.2147 284.1038 0001266  65.3389 294.7735 15.08851779 35759,6917.844,95.437,540.585,538.834,0.0
53400.0,STARLINK-4520,PAYLOAD,2023-03-27 19:26:06,15.08849941,0.0001238,53.2145,282.9135,57.7725,302.3387,0.00046576,7.134e-05,0.0,0 STARLINK-4520,1 53400U 22097N   23086.80979708  .00007134  00000-0  46576-3 0  9995,2 53400  53.2145 282.9135 0001238  57.7725 302.3387 15.08849941 35307,6917.85,95.437,540.571,538.859,0.0
53400.0,STARLINK-4520,PAYLOAD,2023-03-28 12:55:20,15.08856731,0.0001263,53.2149,279.6422,56.2696,303.8416,0.00047459,7.277e-05,0.0,0 STARLINK-4520,1 53400U 22097N   23087.53843103  .00007277  00000-0  47459-3 0  9994,2 53400  53.2149 279.6422 0001263  56.2696 303.8416 15.08856731 35902,6917.829,95.436,540.568,538.821,0.0
53400.0,STARLINK-4520,PAYLOAD,2023-03-28 19:16:52,15.08866968,0.0001217,53.2151,278.4529,58.0035,302.1076,0.00051814,7.974e-05,0.0,0 STARLINK-4520,1 53400U 22097N   23087.80338448  .00007974  00000-0  51814-3 0  9999,2 53400  53.2151 278.4529 0001217  58.0035 302.1076 15.08866968 35947,6917.798,95.436,540.505,538.821,0.0
53400.0,STARLINK-4520,PAYLOAD,2023-03-28 22:27:38,15.08871841,0.0001233,53.2152,277.8583,56.7979,303.3131,0.00060144,9.305e-05,0.0,0 STARLINK-4520,1 53400U 22097N   23087.93586132  .00009305  00000-0  60144-3 0  9994,2 53400  53.2152 277.8583 0001233  56.7979 303.3131 15.08871841 35470,6917.783,95.436,540.501,538.795,0.0
53400.0,STARLINK-4520,PAYLOAD,2023-03-29 19:07:39,15.08858622,0.0001062,53.2148,273.993,62.6718,297.4382,0.00029792,4.459e-05,0.0,0 STARLINK-4520,1 53400U 22097N   23088.79697921  .00004459  00000-0  29792-3 0  9997,2 53400  53.2148 273.9930 0001062  62.6718 297.4382 15.08858622 35603,6917.823,95.436,540.423,538.954,0.0
53400.0,STARLINK-4520,PAYLOAD,2023-03-30 04:39:57,15.08838712,7.75e-05,53.2153,272.2089,88.6875,271.4206,1.9303e-05,2e-07,0.0,0 STARLINK-4520,1 53400U 22097N   23089.19441700  .00000020  00000-0  19303-4 0  9992,2 53400  53.2153 272.2089 0000775  88.6875 271.4206 15.08838712 35669,6917.884,95.438,540.285,539.213,0.0
53400.0,STARLINK-4520,PAYLOAD,2023-03-30 17:23:03,15.08838723,9.71e-05,53.215,269.8303,88.0558,272.0545,0.0005918,9.143e-05,0.0,0 STARLINK-4520,1 53400U 22097N   23089.72434231  .00009143  00000-0  59180-3 0  9993,2 53400  53.2150 269.8303 0000971  88.0558 272.0545 15.08838723 36236,6917.884,95.438,540.421,539.078,0.0
53400.0,STARLINK-4520,PAYLOAD,2023-03-31 10:52:17,15.08844493,7.67e-05,53.2148,266.5596,113.7741,246.3331,0.00057081,8.809e-05,0.0,0 STARLINK-4520,1 53400U 22097N   23090.45298044  .00008809  00000-0  57081-3 0  9991,2 53400  53.2148 266.5596 0000767 113.7741 246.3331 15.08844493 35859,6917.867,95.437,540.262,539.201,0.0
53400.0,STARLINK-4520,PAYLOAD,2023-04-01 04:21:31,15.08842784,6.84e-05,53.2145,263.2902,141.449,218.6551,0.00033911,5.114e-05,0.0,0 STARLINK-4520,1 53400U 22097N   23091.18161891  .00005114  00000-0  33911-3 0  9993,2 53400  53.2145 263.2902 0000684 141.4490 218.6551 15.08842784 35967,6917.872,95.437,540.21,539.264,0.0
